HIMAWARI-8              
1 40267U 14060A   23349.46242458 -.00000258  00000+0  00000+0 0  9990
2 40267   0.0072 285.0393 0000657 335.5055 130.4432  1.00273979 33690
